[
  {
    "name": "131南京舰",
    "category": "museum",
    "duration_minutes": 60,
    "rating": 4.0,
    "lat": 29.2647182,
    "lon": 121.9698784,
    "description": "A popular museum spot in Ningbo.",
    "city": "Ningbo",
    "name_en": "131南京舰"
  },
  {
    "name": "Côte d Azur sales Center",
    "category": "sightseeing",
    "duration_minutes": 60,
    "rating": 4.0,
    "lat": 30.3380852,
    "lon": 121.1841216,
    "description": "A popular sightseeing spot in Ningbo.",
    "city": "Ningbo",
    "name_en": "Côte d Azur sales Center"
  },
  {
    "name": "Foreign-style Mansion",
    "category": "sightseeing",
    "duration_minutes": 60,
    "rating": 4.0,
    "lat": 30.0710196,
    "lon": 121.4824748,
    "description": "A popular sightseeing spot in Ningbo.",
    "city": "Ningbo",
    "name_en": "Foreign-style Mansion"
  },
  {
    "name": "Gallery 401",
    "category": "sightseeing",
    "duration_minutes": 60,
    "rating": 4.0,
    "lat": 29.8847294,
    "lon": 121.6466791,
    "description": "A popular sightseeing spot in Ningbo.",
    "city": "Ningbo",
    "name_en": "Gallery 401"
  },
  {
    "name": "Geely Auto Spare Parts Center",
    "category": "sightseeing",
    "duration_minutes": 60,
    "rating": 4.0,
    "lat": 30.3426532,
    "lon": 121.2602597,
    "description": "A popular sightseeing spot in Ningbo.",
    "city": "Ningbo",
    "name_en": "Geely Auto Spare Parts Center"
  },
  {
    "name": "Han Lin Old Village Main Entrance",
    "category": "sightseeing",
    "duration_minutes": 60,
    "rating": 4.0,
    "lat": 29.7400649,
    "lon": 121.6615259,
    "description": "A popular sightseeing spot in Ningbo.",
    "city": "Ningbo",
    "name_en": "Han Lin Old Village Main Entrance"
  },
  {
    "name": "Lighthouse style view tower",
    "category": "outdoor",
    "duration_minutes": 60,
    "rating": 4.0,
    "lat": 29.8973583,
    "lon": 121.592943,
    "description": "A popular outdoor spot in Ningbo.",
    "city": "Ningbo",
    "name_en": "Lighthouse style view tower"
  },
  {
    "name": "Qiansanfang House (Prefectural Governors Mansion)",
    "category": "sightseeing",
    "duration_minutes": 60,
    "rating": 4.0,
    "lat": 30.0708704,
    "lon": 121.4827671,
    "description": "A popular sightseeing spot in Ningbo.",
    "city": "Ningbo",
    "name_en": "Qiansanfang House (Prefectural Governors Mansion)"
  },
  {
    "name": "Sundown viewpoint",
    "category": "outdoor",
    "duration_minutes": 60,
    "rating": 4.0,
    "lat": 29.7474517,
    "lon": 121.6688227,
    "description": "A popular outdoor spot in Ningbo.",
    "city": "Ningbo",
    "name_en": "Sundown viewpoint"
  },
  {
    "name": "Tax Office",
    "category": "sightseeing",
    "duration_minutes": 60,
    "rating": 4.0,
    "lat": 30.3077385,
    "lon": 121.3235616,
    "description": "A popular sightseeing spot in Ningbo.",
    "city": "Ningbo",
    "name_en": "Tax Office"
  },
  {
    "name": "West gate",
    "category": "sightseeing",
    "duration_minutes": 60,
    "rating": 4.0,
    "lat": 30.3321833,
    "lon": 121.2370554,
    "description": "A popular sightseeing spot in Ningbo.",
    "city": "Ningbo",
    "name_en": "West gate"
  },
  {
    "name": "三一教会学校旧址",
    "category": "sightseeing",
    "duration_minutes": 60,
    "rating": 4.0,
    "lat": 29.8830561,
    "lon": 121.5441392,
    "description": "A popular sightseeing spot in Ningbo.",
    "city": "Ningbo",
    "name_en": "三一教会 School"
  },
  {
    "name": "三十六湾观景台",
    "category": "outdoor",
    "duration_minutes": 60,
    "rating": 4.0,
    "lat": 29.6901374,
    "lon": 121.1936842,
    "description": "A popular outdoor spot in Ningbo.",
    "city": "Ningbo",
    "name_en": "三十六湾观景台"
  },
  {
    "name": "三溪浦水杉林",
    "category": "outdoor",
    "duration_minutes": 60,
    "rating": 4.0,
    "lat": 29.7768008,
    "lon": 121.7511779,
    "description": "A popular outdoor spot in Ningbo.",
    "city": "Ningbo",
    "name_en": "三溪浦水杉 Forest"
  },
  {
    "name": "上半山观景台",
    "category": "outdoor",
    "duration_minutes": 60,
    "rating": 4.0,
    "lat": 29.7690101,
    "lon": 121.2672402,
    "description": "A popular outdoor spot in Ningbo.",
    "city": "Ningbo",
    "name_en": "上半 Mountain"
  },
  {
    "name": "上林湖越窑博物馆",
    "category": "museum",
    "duration_minutes": 60,
    "rating": 4.0,
    "lat": 30.1224654,
    "lon": 121.3402143,
    "description": "A popular museum spot in Ningbo.",
    "city": "Ningbo",
    "name_en": "上林湖越窑 Museum"
  },
  {
    "name": "上林湖青瓷文化传承园",
    "category": "sightseeing",
    "duration_minutes": 60,
    "rating": 4.0,
    "lat": 30.1205146,
    "lon": 121.3209023,
    "description": "A popular sightseeing spot in Ningbo.",
    "city": "Ningbo",
    "name_en": "上林 Lake"
  },
  {
    "name": "下蒲魏氏宗祠/后舟古戏台",
    "category": "history",
    "duration_minutes": 60,
    "rating": 4.0,
    "lat": 29.4495439,
    "lon": 121.4907738,
    "description": "A popular history spot in Ningbo.",
    "city": "Ningbo",
    "name_en": "下蒲魏氏宗祠/后舟古戏台"
  },
  {
    "name": "世博之家",
    "category": "museum",
    "duration_minutes": 60,
    "rating": 4.0,
    "lat": 29.9569628,
    "lon": 121.708821,
    "description": "A popular museum spot in Ningbo.",
    "city": "Ningbo",
    "name_en": "世博之家"
  },
  {
    "name": "世纪城关公像",
    "category": "history",
    "duration_minutes": 60,
    "rating": 4.0,
    "lat": 30.3313493,
    "lon": 121.2225719,
    "description": "A popular history spot in Ningbo.",
    "city": "Ningbo",
    "name_en": "世纪城关公像"
  },
  {
    "name": "东山桃园",
    "category": "sightseeing",
    "duration_minutes": 60,
    "rating": 4.0,
    "lat": 29.3437904,
    "lon": 121.6711467,
    "description": "A popular sightseeing spot in Ningbo.",
    "city": "Ningbo",
    "name_en": "东 Mountain"
  },
  {
    "name": "东岗山观景台",
    "category": "outdoor",
    "duration_minutes": 60,
    "rating": 4.0,
    "lat": 29.8865165,
    "lon": 121.1159702,
    "description": "鹿亭步道",
    "city": "Ningbo",
    "name_en": "东岗 Mountain"
  },
  {
    "name": "东方红号旧机车",
    "category": "sightseeing",
    "duration_minutes": 60,
    "rating": 4.0,
    "lat": 29.9491565,
    "lon": 121.6016589,
    "description": "A popular sightseeing spot in Ningbo.",
    "city": "Ningbo",
    "name_en": "东方红号旧机车"
  },
  {
    "name": "东旦村文化大礼堂",
    "category": "museum",
    "duration_minutes": 60,
    "rating": 4.0,
    "lat": 29.3303394,
    "lon": 121.9386265,
    "description": "A popular museum spot in Ningbo.",
    "city": "Ningbo",
    "name_en": "东旦 Village"
  },
  {
    "name": "东海云顶",
    "category": "outdoor",
    "duration_minutes": 60,
    "rating": 4.0,
    "lat": 29.3813304,
    "lon": 121.5950506,
    "description": "A popular outdoor spot in Ningbo.",
    "city": "Ningbo",
    "name_en": "东 Sea"
  },
  {
    "name": "东海龙椅",
    "category": "outdoor",
    "duration_minutes": 60,
    "rating": 4.0,
    "lat": 30.0467416,
    "lon": 121.474959,
    "description": "A popular outdoor spot in Ningbo.",
    "city": "Ningbo",
    "name_en": "东 Sea"
  },
  {
    "name": "中国港口博物馆",
    "category": "museum",
    "duration_minutes": 60,
    "rating": 4.0,
    "lat": 29.7587151,
    "lon": 121.9056681,
    "description": "A popular museum spot in Ningbo.",
    "city": "Ningbo",
    "name_en": "中国港口 Museum"
  },
  {
    "name": "中国防空博览园",
    "category": "museum",
    "duration_minutes": 60,
    "rating": 4.0,
    "lat": 29.9605294,
    "lon": 121.7210453,
    "description": "A popular museum spot in Ningbo.",
    "city": "Ningbo",
    "name_en": "中国防空博览 Garden"
  },
  {
    "name": "中国防空博览园-军事体验区",
    "category": "museum",
    "duration_minutes": 60,
    "rating": 4.0,
    "lat": 29.9624271,
    "lon": 121.7197471,
    "description": "A popular museum spot in Ningbo.",
    "city": "Ningbo",
    "name_en": "中国防空博览 Garden"
  },
  {
    "name": "中村景区",
    "category": "sightseeing",
    "duration_minutes": 60,
    "rating": 4.0,
    "lat": 29.8631766,
    "lon": 121.2228334,
    "description": "A popular sightseeing spot in Ningbo.",
    "city": "Ningbo",
    "name_en": "中 Village"
  },
  {
    "name": "九峰之巅",
    "category": "outdoor",
    "duration_minutes": 60,
    "rating": 4.0,
    "lat": 29.843003,
    "lon": 121.8583023,
    "description": "A popular outdoor spot in Ningbo.",
    "city": "Ningbo",
    "name_en": "九峰之巅"
  },
  {
    "name": "九峰山旅游区游客中心",
    "category": "outdoor",
    "duration_minutes": 60,
    "rating": 4.0,
    "lat": 29.8547924,
    "lon": 121.836228,
    "description": "A popular outdoor spot in Ningbo.",
    "city": "Ningbo",
    "name_en": "九峰山旅游 游客 Center"
  },
  {
    "name": "九龙观瀑（九龙潭）",
    "category": "sightseeing",
    "duration_minutes": 60,
    "rating": 4.0,
    "lat": 29.413319,
    "lon": 121.3886623,
    "description": "A popular sightseeing spot in Ningbo.",
    "city": "Ningbo",
    "name_en": "九龙观瀑（九龙潭）"
  },
  {
    "name": "五台观日",
    "category": "outdoor",
    "duration_minutes": 60,
    "rating": 4.0,
    "lat": 29.7262444,
    "lon": 121.7371108,
    "description": "A popular outdoor spot in Ningbo.",
    "city": "Ningbo",
    "name_en": "五台观日"
  },
  {
    "name": "五姓村抗战纪念馆",
    "category": "museum",
    "duration_minutes": 60,
    "rating": 4.0,
    "lat": 30.1525415,
    "lon": 121.3686383,
    "description": "A popular museum spot in Ningbo.",
    "city": "Ningbo",
    "name_en": "五姓村抗战 Memorial Hall"
  },
  {
    "name": "亭溪岭",
    "category": "sightseeing",
    "duration_minutes": 60,
    "rating": 4.0,
    "lat": 29.7149505,
    "lon": 121.606459,
    "description": "A popular sightseeing spot in Ningbo.",
    "city": "Ningbo",
    "name_en": "亭溪岭"
  },
  {
    "name": "伍山石窟",
    "category": "sightseeing",
    "duration_minutes": 60,
    "rating": 4.0,
    "lat": 29.2108306,
    "lon": 121.7479725,
    "description": "A popular sightseeing spot in Ningbo.",
    "city": "Ningbo",
    "name_en": "伍山 Grotto"
  },
  {
    "name": "伍山石窟-文殊道场",
    "category": "sightseeing",
    "duration_minutes": 60,
    "rating": 4.0,
    "lat": 29.1966546,
    "lon": 121.7490341,
    "description": "A popular sightseeing spot in Ningbo.",
    "city": "Ningbo",
    "name_en": "伍山 Grotto"
  },
  {
    "name": "伴山伴水景区",
    "category": "outdoor",
    "duration_minutes": 60,
    "rating": 4.0,
    "lat": 29.7689129,
    "lon": 121.2963071,
    "description": "A popular outdoor spot in Ningbo.",
    "city": "Ningbo",
    "name_en": "伴 Mountain"
  },
  {
    "name": "余姚名人馆",
    "category": "museum",
    "duration_minutes": 60,
    "rating": 4.0,
    "lat": 30.0484583,
    "lon": 121.1464092,
    "description": "A popular museum spot in Ningbo.",
    "city": "Ningbo",
    "name_en": "余姚名人馆"
  },
  {
    "name": "佛手台",
    "category": "sightseeing",
    "duration_minutes": 60,
    "rating": 4.0,
    "lat": 29.3989272,
    "lon": 121.3876393,
    "description": "A popular sightseeing spot in Ningbo.",
    "city": "Ningbo",
    "name_en": "佛手台"
  },
  {
    "name": "佛迹洞",
    "category": "history",
    "duration_minutes": 60,
    "rating": 4.0,
    "lat": 30.0626871,
    "lon": 121.512748,
    "description": "A popular history spot in Ningbo.",
    "city": "Ningbo",
    "name_en": "佛迹 Cave"
  },
  {
    "name": "保国寺博物馆",
    "category": "museum",
    "duration_minutes": 60,
    "rating": 4.0,
    "lat": 29.9820974,
    "lon": 121.5172179,
    "description": "A popular museum spot in Ningbo.",
    "city": "Ningbo",
    "name_en": "保国寺 Museum"
  },
  {
    "name": "俞大猷生祠碑记",
    "category": "history",
    "duration_minutes": 60,
    "rating": 4.0,
    "lat": 29.9588587,
    "lon": 121.7165389,
    "description": "A popular history spot in Ningbo.",
    "city": "Ningbo",
    "name_en": "俞大猷生祠 Monument"
  },
  {
    "name": "儿童乐园",
    "category": "outdoor",
    "duration_minutes": 60,
    "rating": 4.0,
    "lat": 29.3652146,
    "lon": 121.4661937,
    "description": "A popular outdoor spot in Ningbo.",
    "city": "Ningbo",
    "name_en": "儿童乐 Garden"
  },
  {
    "name": "八一台风纪念碑",
    "category": "history",
    "duration_minutes": 60,
    "rating": 4.0,
    "lat": 29.4171497,
    "lon": 121.968348,
    "description": "A popular history spot in Ningbo.",
    "city": "Ningbo",
    "name_en": "八一台风纪念 Monument"
  },
  {
    "name": "兰园",
    "category": "sightseeing",
    "duration_minutes": 60,
    "rating": 4.0,
    "lat": 29.946069,
    "lon": 121.6053741,
    "description": "A popular sightseeing spot in Ningbo.",
    "city": "Ningbo",
    "name_en": "兰 Garden"
  },
  {
    "name": "分巡宁绍台道公署遗址",
    "category": "sightseeing",
    "duration_minutes": 60,
    "rating": 4.0,
    "lat": 29.8797197,
    "lon": 121.5434293,
    "description": "A popular sightseeing spot in Ningbo.",
    "city": "Ningbo",
    "name_en": "分巡宁绍台道公署 Site"
  },
  {
    "name": "利泽潭",
    "category": "sightseeing",
    "duration_minutes": 60,
    "rating": 4.0,
    "lat": 29.7954701,
    "lon": 121.2398922,
    "description": "A popular sightseeing spot in Ningbo.",
    "city": "Ningbo",
    "name_en": "利泽潭"
  },
  {
    "name": "前湾城市展览馆",
    "category": "museum",
    "duration_minutes": 60,
    "rating": 4.0,
    "lat": 30.3569785,
    "lon": 121.2092453,
    "description": "A popular museum spot in Ningbo.",
    "city": "Ningbo",
    "name_en": "前湾城 Exhibition Hall"
  },
  {
    "name": "前童古镇",
    "category": "sightseeing",
    "duration_minutes": 60,
    "rating": 4.0,
    "lat": 29.2272583,
    "lon": 121.3465818,
    "description": "A popular sightseeing spot in Ningbo.",
    "city": "Ningbo",
    "name_en": "前童 Ancient Town"
  },
  {
    "name": "北书库",
    "category": "sightseeing",
    "duration_minutes": 60,
    "rating": 4.0,
    "lat": 29.8742671,
    "lon": 121.5357659,
    "description": "A popular sightseeing spot in Ningbo.",
    "city": "Ningbo",
    "name_en": "北书库"
  },
  {
    "name": "北仑革命烈士纪念馆",
    "category": "history",
    "duration_minutes": 60,
    "rating": 4.0,
    "lat": 29.9019306,
    "lon": 121.8530831,
    "description": "A popular history spot in Ningbo.",
    "city": "Ningbo",
    "name_en": "北仑革命烈士 Memorial Hall"
  },
  {
    "name": "十里红妆博物馆",
    "category": "museum",
    "duration_minutes": 60,
    "rating": 4.0,
    "lat": 29.282255,
    "lon": 121.4247088,
    "description": "A popular museum spot in Ningbo.",
    "city": "Ningbo",
    "name_en": "十里红妆 Museum"
  },
  {
    "name": "十里红妆文化园",
    "category": "museum",
    "duration_minutes": 60,
    "rating": 4.0,
    "lat": 29.297722,
    "lon": 121.412539,
    "description": "A popular museum spot in Ningbo.",
    "city": "Ningbo",
    "name_en": "十里红妆文化 Garden"
  },
  {
    "name": "升纲潭",
    "category": "outdoor",
    "duration_minutes": 60,
    "rating": 4.0,
    "lat": 29.6232823,
    "lon": 121.1470606,
    "description": "A popular outdoor spot in Ningbo.",
    "city": "Ningbo",
    "name_en": "升纲潭"
  },
  {
    "name": "华茂美术馆",
    "category": "sightseeing",
    "duration_minutes": 60,
    "rating": 4.0,
    "lat": 29.8236272,
    "lon": 121.5428528,
    "description": "A popular sightseeing spot in Ningbo.",
    "city": "Ningbo",
    "name_en": "华茂 Art Gallery"
  },
  {
    "name": "南塘老街",
    "category": "sightseeing",
    "duration_minutes": 60,
    "rating": 4.0,
    "lat": 29.8560127,
    "lon": 121.5333802,
    "description": "A popular sightseeing spot in Ningbo.",
    "city": "Ningbo",
    "name_en": "南塘 Old Street"
  },
  {
    "name": "南宋石刻公园",
    "category": "museum",
    "duration_minutes": 60,
    "rating": 4.0,
    "lat": 29.7495649,
    "lon": 121.6827342,
    "description": "A popular museum spot in Ningbo.",
    "city": "Ningbo",
    "name_en": "南宋石刻 Park"
  },
  {
    "name": "南山观景台",
    "category": "outdoor",
    "duration_minutes": 60,
    "rating": 4.0,
    "lat": 29.5773354,
    "lon": 121.3262852,
    "description": "A popular outdoor spot in Ningbo.",
    "city": "Ningbo",
    "name_en": "南 Mountain"
  },
  {
    "name": "卢宅",
    "category": "sightseeing",
    "duration_minutes": 60,
    "rating": 4.0,
    "lat": 29.8731793,
    "lon": 121.5400931,
    "description": "A popular sightseeing spot in Ningbo.",
    "city": "Ningbo",
    "name_en": "卢宅"
  },
  {
    "name": "县衙",
    "category": "history",
    "duration_minutes": 60,
    "rating": 4.0,
    "lat": 29.9909353,
    "lon": 121.4458463,
    "description": "A popular history spot in Ningbo.",
    "city": "Ningbo",
    "name_en": "县衙"
  },
  {
    "name": "双燕观景台",
    "category": "outdoor",
    "duration_minutes": 60,
    "rating": 4.0,
    "lat": 29.8686812,
    "lon": 121.5384679,
    "description": "A popular outdoor spot in Ningbo.",
    "city": "Ningbo",
    "name_en": "双燕观景台"
  },
  {
    "name": "古祭坛",
    "category": "sightseeing",
    "duration_minutes": 60,
    "rating": 4.0,
    "lat": 29.79412,
    "lon": 121.2389964,
    "description": "A popular sightseeing spot in Ningbo.",
    "city": "Ningbo",
    "name_en": "古祭坛"
  },
  {
    "name": "吴公纪功碑亭",
    "category": "history",
    "duration_minutes": 60,
    "rating": 4.0,
    "lat": 29.9586291,
    "lon": 121.716148,
    "description": "A popular history spot in Ningbo.",
    "city": "Ningbo",
    "name_en": "吴公纪功 Monument"
  },
  {
    "name": "吴氏支祠",
    "category": "sightseeing",
    "duration_minutes": 60,
    "rating": 4.0,
    "lat": 29.8659818,
    "lon": 121.5389431,
    "description": "A popular sightseeing spot in Ningbo.",
    "city": "Ningbo",
    "name_en": "吴氏支祠"
  },
  {
    "name": "四季百花园",
    "category": "sightseeing",
    "duration_minutes": 60,
    "rating": 4.0,
    "lat": 29.9446994,
    "lon": 121.6086512,
    "description": "A popular sightseeing spot in Ningbo.",
    "city": "Ningbo",
    "name_en": "四季百花 Garden"
  },
  {
    "name": "四明山观景台",
    "category": "outdoor",
    "duration_minutes": 60,
    "rating": 4.0,
    "lat": 29.8473861,
    "lon": 121.098188,
    "description": "A popular outdoor spot in Ningbo.",
    "city": "Ningbo",
    "name_en": "四明 Mountain"
  },
  {
    "name": "四明山观景长廊",
    "category": "outdoor",
    "duration_minutes": 60,
    "rating": 4.0,
    "lat": 29.8401681,
    "lon": 121.102416,
    "description": "A popular outdoor spot in Ningbo.",
    "city": "Ningbo",
    "name_en": "四明 Mountain"
  },
  {
    "name": "四明风景台",
    "category": "outdoor",
    "duration_minutes": 60,
    "rating": 4.0,
    "lat": 29.8473837,
    "lon": 121.0860833,
    "description": "A popular outdoor spot in Ningbo.",
    "city": "Ningbo",
    "name_en": "四明风景台"
  },
  {
    "name": "地坪岗观景台",
    "category": "outdoor",
    "duration_minutes": 60,
    "rating": 4.0,
    "lat": 29.856024,
    "lon": 121.2092553,
    "description": "A popular outdoor spot in Ningbo.",
    "city": "Ningbo",
    "name_en": "地坪岗观景台"
  },
  {
    "name": "地震科普体验馆",
    "category": "sightseeing",
    "duration_minutes": 60,
    "rating": 4.0,
    "lat": 29.8063215,
    "lon": 121.6667578,
    "description": "A popular sightseeing spot in Ningbo.",
    "city": "Ningbo",
    "name_en": "地震科普体验馆"
  },
  {
    "name": "塔山烈士纪念碑",
    "category": "history",
    "duration_minutes": 60,
    "rating": 4.0,
    "lat": 29.7338189,
    "lon": 121.3988829,
    "description": "A popular history spot in Ningbo.",
    "city": "Ningbo",
    "name_en": "Pagoda"
  },
  {
    "name": "外牌楼",
    "category": "history",
    "duration_minutes": 60,
    "rating": 4.0,
    "lat": 29.7653786,
    "lon": 121.2779528,
    "description": "A popular history spot in Ningbo.",
    "city": "Ningbo",
    "name_en": "外牌 Tower"
  },
  {
    "name": "大岩壁",
    "category": "sightseeing",
    "duration_minutes": 60,
    "rating": 4.0,
    "lat": 29.7523647,
    "lon": 121.1964338,
    "description": "A popular sightseeing spot in Ningbo.",
    "city": "Ningbo",
    "name_en": "大岩壁"
  },
  {
    "name": "大方岳第",
    "category": "museum",
    "duration_minutes": 60,
    "rating": 4.0,
    "lat": 29.8723673,
    "lon": 121.540703,
    "description": "A popular museum spot in Ningbo.",
    "city": "Ningbo",
    "name_en": "大方岳第"
  },
  {
    "name": "天一阁",
    "category": "sightseeing",
    "duration_minutes": 60,
    "rating": 4.0,
    "lat": 29.8738039,
    "lon": 121.5359544,
    "description": "A popular sightseeing spot in Ningbo.",
    "city": "Ningbo",
    "name_en": "天一 Pavilion"
  },
  {
    "name": "天一阁博物馆",
    "category": "museum",
    "duration_minutes": 60,
    "rating": 4.0,
    "lat": 29.8736392,
    "lon": 121.536095,
    "description": "1st May - 31 October : 8:30 - 17:30. 1 November - 30 April : 8:30 - 17:00",
    "city": "Ningbo",
    "name_en": "天一阁 Museum"
  },
  {
    "name": "天宁寺塔",
    "category": "sightseeing",
    "duration_minutes": 60,
    "rating": 4.0,
    "lat": 29.8767053,
    "lon": 121.5390642,
    "description": "A popular sightseeing spot in Ningbo.",
    "city": "Ningbo",
    "name_en": "天宁 Temple"
  },
  {
    "name": "天宫庄园",
    "category": "sightseeing",
    "duration_minutes": 60,
    "rating": 4.0,
    "lat": 29.8042045,
    "lon": 121.5708375,
    "description": "A popular sightseeing spot in Ningbo.",
    "city": "Ningbo",
    "name_en": "天 Palace"
  },
  {
    "name": "天封塔",
    "category": "sightseeing",
    "duration_minutes": 60,
    "rating": 4.0,
    "lat": 29.8679332,
    "lon": 121.5467747,
    "description": "A popular sightseeing spot in Ningbo.",
    "city": "Ningbo",
    "name_en": "天封 Pagoda"
  },
  {
    "name": "天童寺",
    "category": "history",
    "duration_minutes": 60,
    "rating": 4.0,
    "lat": 29.8073461,
    "lon": 121.7905538,
    "description": "A popular history spot in Ningbo.",
    "city": "Ningbo",
    "name_en": "天童 Temple"
  },
  {
    "name": "姚江源景区",
    "category": "sightseeing",
    "duration_minutes": 60,
    "rating": 4.0,
    "lat": 29.8434683,
    "lon": 121.1164999,
    "description": "A popular sightseeing spot in Ningbo.",
    "city": "Ningbo",
    "name_en": "姚 River"
  },
  {
    "name": "宁波书画博物馆",
    "category": "museum",
    "duration_minutes": 60,
    "rating": 4.0,
    "lat": 29.8041485,
    "lon": 121.5724304,
    "description": "A popular museum spot in Ningbo.",
    "city": "Ningbo",
    "name_en": "Ningbo 书画 Museum"
  },
  {
    "name": "宁波云上天梯",
    "category": "outdoor",
    "duration_minutes": 60,
    "rating": 4.0,
    "lat": 29.8736843,
    "lon": 121.2398549,
    "description": "A popular outdoor spot in Ningbo.",
    "city": "Ningbo",
    "name_en": "Ningbo 云上天梯"
  },
  {
    "name": "宁波人体漂流点",
    "category": "outdoor",
    "duration_minutes": 60,
    "rating": 4.0,
    "lat": 29.8173638,
    "lon": 121.2921792,
    "description": "A popular outdoor spot in Ningbo.",
    "city": "Ningbo",
    "name_en": "Ningbo 人体漂流点"
  },
  {
    "name": "宁波博物馆",
    "category": "museum",
    "duration_minutes": 60,
    "rating": 4.0,
    "lat": 29.8173595,
    "lon": 121.54092,
    "description": "A popular museum spot in Ningbo.",
    "city": "Ningbo",
    "name_en": "Ningbo Museum"
  },
  {
    "name": "宁波园林博物馆",
    "category": "museum",
    "duration_minutes": 60,
    "rating": 4.0,
    "lat": 29.9001813,
    "lon": 121.5431489,
    "description": "A popular museum spot in Ningbo.",
    "city": "Ningbo",
    "name_en": "Ningbo 园林 Museum"
  },
  {
    "name": "宁波奉化城市展览馆",
    "category": "museum",
    "duration_minutes": 60,
    "rating": 4.0,
    "lat": 29.7209308,
    "lon": 121.4369662,
    "description": "A popular museum spot in Ningbo.",
    "city": "Ningbo",
    "name_en": "Ningbo 奉化城 Exhibition Hall"
  },
  {
    "name": "宁波婚俗博物馆",
    "category": "museum",
    "duration_minutes": 60,
    "rating": 4.0,
    "lat": 29.8251264,
    "lon": 121.4894745,
    "description": "A popular museum spot in Ningbo.",
    "city": "Ningbo",
    "name_en": "Ningbo 婚俗 Museum"
  },
  {
    "name": "宁波市城市展览馆",
    "category": "museum",
    "duration_minutes": 60,
    "rating": 4.0,
    "lat": 29.8609605,
    "lon": 121.6179326,
    "description": "A popular museum spot in Ningbo.",
    "city": "Ningbo",
    "name_en": "Ningbo 城 Exhibition Hall"
  },
  {
    "name": "宁波市奉化区溪口博物馆",
    "category": "museum",
    "duration_minutes": 60,
    "rating": 4.0,
    "lat": 29.6858635,
    "lon": 121.2794967,
    "description": "A popular museum spot in Ningbo.",
    "city": "Ningbo",
    "name_en": "Ningbo 奉化 溪口 Museum"
  },
  {
    "name": "宁波市文化馆",
    "category": "museum",
    "duration_minutes": 60,
    "rating": 4.0,
    "lat": 29.8696643,
    "lon": 121.549613,
    "description": "A popular museum spot in Ningbo.",
    "city": "Ningbo",
    "name_en": "Ningbo Cultural Center"
  },
  {
    "name": "宁波帮博物馆",
    "category": "museum",
    "duration_minutes": 60,
    "rating": 4.0,
    "lat": 29.9212693,
    "lon": 121.6237915,
    "description": "A popular museum spot in Ningbo.",
    "city": "Ningbo",
    "name_en": "Ningbo 帮 Museum"
  },
  {
    "name": "宁波当代艺术馆",
    "category": "museum",
    "duration_minutes": 60,
    "rating": 4.0,
    "lat": 29.8792056,
    "lon": 121.549342,
    "description": "A popular museum spot in Ningbo.",
    "city": "Ningbo",
    "name_en": "Ningbo 当代 Art Museum"
  },
  {
    "name": "宁波教育博物馆",
    "category": "museum",
    "duration_minutes": 60,
    "rating": 4.0,
    "lat": 29.8788234,
    "lon": 121.5491458,
    "description": "A popular museum spot in Ningbo.",
    "city": "Ningbo",
    "name_en": "Ningbo 教育 Museum"
  },
  {
    "name": "宁波朱金漆木雕艺术博物馆",
    "category": "museum",
    "duration_minutes": 60,
    "rating": 4.0,
    "lat": 29.7112267,
    "lon": 121.584784,
    "description": "A popular museum spot in Ningbo.",
    "city": "Ningbo",
    "name_en": "Ningbo 朱金漆木雕艺术 Museum"
  },
  {
    "name": "宁波杭州湾新区城市展览馆",
    "category": "museum",
    "duration_minutes": 60,
    "rating": 4.0,
    "lat": 30.3229199,
    "lon": 121.1972183,
    "description": "A popular museum spot in Ningbo.",
    "city": "Ningbo",
    "name_en": "Ningbo 杭州湾新 城 Exhibition Hall"
  },
  {
    "name": "宁波科学探索中心",
    "category": "museum",
    "duration_minutes": 60,
    "rating": 4.0,
    "lat": 29.8614767,
    "lon": 121.6131838,
    "description": "A popular museum spot in Ningbo.",
    "city": "Ningbo",
    "name_en": "Ningbo 科学探索 Center"
  },
  {
    "name": "宁波美术馆",
    "category": "sightseeing",
    "duration_minutes": 60,
    "rating": 4.0,
    "lat": 29.8810164,
    "lon": 121.5572392,
    "description": "A popular sightseeing spot in Ningbo.",
    "city": "Ningbo",
    "name_en": "Ningbo Art Gallery"
  },
  {
    "name": "宁波老外滩",
    "category": "sightseeing",
    "duration_minutes": 60,
    "rating": 4.0,
    "lat": 29.879128,
    "lon": 121.5564397,
    "description": "A popular sightseeing spot in Ningbo.",
    "city": "Ningbo",
    "name_en": "Ningbo 老外滩"
  },
  {
    "name": "宁波老外滩展览馆",
    "category": "museum",
    "duration_minutes": 60,
    "rating": 4.0,
    "lat": 29.8778891,
    "lon": 121.5555482,
    "description": "A popular museum spot in Ningbo.",
    "city": "Ningbo",
    "name_en": "Ningbo 老外滩 Exhibition Hall"
  },
  {
    "name": "宁波邮政局旧址",
    "category": "sightseeing",
    "duration_minutes": 60,
    "rating": 4.0,
    "lat": 29.8832907,
    "lon": 121.5580294,
    "description": "A popular sightseeing spot in Ningbo.",
    "city": "Ningbo",
    "name_en": "Ningbo 邮政局旧址"
  },
  {
    "name": "宁波野生动物园",
    "category": "outdoor",
    "duration_minutes": 60,
    "rating": 4.0,
    "lat": 29.8062862,
    "lon": 121.6716917,
    "description": "A popular outdoor spot in Ningbo.",
    "city": "Ningbo",
    "name_en": "Ningbo 野生 Zoo"
  },
  {
    "name": "宁波鼓楼",
    "category": "sightseeing",
    "duration_minutes": 60,
    "rating": 4.0,
    "lat": 29.8762646,
    "lon": 121.5423544,
    "description": "A popular sightseeing spot in Ningbo.",
    "city": "Ningbo",
    "name_en": "Ningbo 鼓 Tower"
  },
  {
    "name": "宁波鼠疫场遗址纪念碑",
    "category": "history",
    "duration_minutes": 60,
    "rating": 4.0,
    "lat": 29.8742276,
    "lon": 121.5483934,
    "description": "A popular history spot in Ningbo.",
    "city": "Ningbo",
    "name_en": "Ningbo 鼠疫场 Site"
  },
  {
    "name": "宁海县规划展示馆（B馆3F）",
    "category": "museum",
    "duration_minutes": 60,
    "rating": 4.0,
    "lat": 29.3235654,
    "lon": 121.4299928,
    "description": "A popular museum spot in Ningbo.",
    "city": "Ningbo",
    "name_en": "宁 Sea"
  },
  {
    "name": "宁海湾（强蛟）",
    "category": "sightseeing",
    "duration_minutes": 60,
    "rating": 4.0,
    "lat": 29.461791,
    "lon": 121.5325558,
    "description": "A popular sightseeing spot in Ningbo.",
    "city": "Ningbo",
    "name_en": "宁 Sea"
  },
  {
    "name": "它山堰观景台",
    "category": "outdoor",
    "duration_minutes": 60,
    "rating": 4.0,
    "lat": 29.7677685,
    "lon": 121.3487662,
    "description": "A popular outdoor spot in Ningbo.",
    "city": "Ningbo",
    "name_en": "它 Mountain"
  },
  {
    "name": "宏远炮台",
    "category": "history",
    "duration_minutes": 60,
    "rating": 4.0,
    "lat": 29.9710615,
    "lon": 121.7474115,
    "description": "A popular history spot in Ningbo.",
    "city": "Ningbo",
    "name_en": "宏远炮台"
  },
  {
    "name": "宝奎巷建筑群",
    "category": "sightseeing",
    "duration_minutes": 60,
    "rating": 4.0,
    "lat": 29.8741236,
    "lon": 121.5411298,
    "description": "A popular sightseeing spot in Ningbo.",
    "city": "Ningbo",
    "name_en": "宝奎巷建筑群"
  },
  {
    "name": "屠呦呦旧居陈列馆",
    "category": "museum",
    "duration_minutes": 60,
    "rating": 4.0,
    "lat": 29.8665118,
    "lon": 121.545851,
    "description": "A popular museum spot in Ningbo.",
    "city": "Ningbo",
    "name_en": "屠呦呦 Former Residence"
  },
  {
    "name": "山洋营地",
    "category": "museum",
    "duration_minutes": 60,
    "rating": 4.0,
    "lat": 29.2304089,
    "lon": 121.254971,
    "description": "A popular museum spot in Ningbo.",
    "city": "Ningbo",
    "name_en": "Mountain"
  },
  {
    "name": "崔岙步道观景台",
    "category": "outdoor",
    "duration_minutes": 60,
    "rating": 4.0,
    "lat": 29.8076982,
    "lon": 121.2820204,
    "description": "该观景台为海曙步道附属设施",
    "city": "Ningbo",
    "name_en": "崔岙步道观景台"
  },
  {
    "name": "布政房",
    "category": "history",
    "duration_minutes": 60,
    "rating": 4.0,
    "lat": 29.9875124,
    "lon": 121.4494124,
    "description": "A popular history spot in Ningbo.",
    "city": "Ningbo",
    "name_en": "布政房"
  },
  {
    "name": "平远炮台",
    "category": "history",
    "duration_minutes": 60,
    "rating": 4.0,
    "lat": 29.9600722,
    "lon": 121.732009,
    "description": "A popular history spot in Ningbo.",
    "city": "Ningbo",
    "name_en": "平远炮台"
  },
  {
    "name": "庆安会馆",
    "category": "museum",
    "duration_minutes": 60,
    "rating": 4.0,
    "lat": 29.8748581,
    "lon": 121.5588421,
    "description": "A popular museum spot in Ningbo.",
    "city": "Ningbo",
    "name_en": "庆安 Guild Hall"
  },
  {
    "name": "延爽亭",
    "category": "history",
    "duration_minutes": 60,
    "rating": 4.0,
    "lat": 29.8573777,
    "lon": 121.3601668,
    "description": "A popular history spot in Ningbo.",
    "city": "Ningbo",
    "name_en": "延爽亭"
  },
  {
    "name": "张苍水纪念馆",
    "category": "history",
    "duration_minutes": 60,
    "rating": 4.0,
    "lat": 29.8803054,
    "lon": 121.5446339,
    "description": "A popular history spot in Ningbo.",
    "city": "Ningbo",
    "name_en": "张苍水 Memorial Hall"
  },
  {
    "name": "徐氏宗祠",
    "category": "sightseeing",
    "duration_minutes": 60,
    "rating": 4.0,
    "lat": 29.8737375,
    "lon": 121.5407784,
    "description": "A popular sightseeing spot in Ningbo.",
    "city": "Ningbo",
    "name_en": "徐氏宗祠"
  },
  {
    "name": "慈城古县城",
    "category": "sightseeing",
    "duration_minutes": 60,
    "rating": 4.0,
    "lat": 29.9860025,
    "lon": 121.4473924,
    "description": "A popular sightseeing spot in Ningbo.",
    "city": "Ningbo",
    "name_en": "慈城古县城"
  },
  {
    "name": "慈城古县城历史文化展览馆",
    "category": "museum",
    "duration_minutes": 60,
    "rating": 4.0,
    "lat": 29.982878,
    "lon": 121.4518444,
    "description": "A popular museum spot in Ningbo.",
    "city": "Ningbo",
    "name_en": "慈城古 城历史文化 Exhibition Hall"
  },
  {
    "name": "慈城古城墙",
    "category": "history",
    "duration_minutes": 60,
    "rating": 4.0,
    "lat": 29.9829547,
    "lon": 121.4514612,
    "description": "A popular history spot in Ningbo.",
    "city": "Ningbo",
    "name_en": "慈城古 City Wall"
  },
  {
    "name": "慈城药商博物馆",
    "category": "museum",
    "duration_minutes": 60,
    "rating": 4.0,
    "lat": 29.987684,
    "lon": 121.4475842,
    "description": "A popular museum spot in Ningbo.",
    "city": "Ningbo",
    "name_en": "慈城药商 Museum"
  },
  {
    "name": "慈溪党史馆",
    "category": "museum",
    "duration_minutes": 60,
    "rating": 4.0,
    "lat": 30.2026538,
    "lon": 121.2768128,
    "description": "A popular museum spot in Ningbo.",
    "city": "Ningbo",
    "name_en": "慈溪党史馆"
  },
  {
    "name": "慈溪市博物馆",
    "category": "museum",
    "duration_minutes": 60,
    "rating": 4.0,
    "lat": 30.2030167,
    "lon": 121.2745037,
    "description": "A popular museum spot in Ningbo.",
    "city": "Ningbo",
    "name_en": "慈溪 Museum"
  },
  {
    "name": "慈溪市文化馆",
    "category": "museum",
    "duration_minutes": 60,
    "rating": 4.0,
    "lat": 30.2027488,
    "lon": 121.2746724,
    "description": "A popular museum spot in Ningbo.",
    "city": "Ningbo",
    "name_en": "慈溪 Cultural Center"
  },
  {
    "name": "慈溪科技馆",
    "category": "museum",
    "duration_minutes": 60,
    "rating": 4.0,
    "lat": 30.2033154,
    "lon": 121.2746141,
    "description": "A popular museum spot in Ningbo.",
    "city": "Ningbo",
    "name_en": "慈溪 Science Museum"
  },
  {
    "name": "戚家山营垒",
    "category": "history",
    "duration_minutes": 60,
    "rating": 4.0,
    "lat": 29.9536709,
    "lon": 121.7337247,
    "description": "A popular history spot in Ningbo.",
    "city": "Ningbo",
    "name_en": "戚家 Mountain"
  },
  {
    "name": "戚继光纪念馆",
    "category": "museum",
    "duration_minutes": 60,
    "rating": 4.0,
    "lat": 30.2341773,
    "lon": 121.3118988,
    "description": "A popular museum spot in Ningbo.",
    "city": "Ningbo",
    "name_en": "戚继光 Memorial Hall"
  },
  {
    "name": "抗日反顽斗争死难烈士纪念碑",
    "category": "history",
    "duration_minutes": 60,
    "rating": 4.0,
    "lat": 29.8230856,
    "lon": 121.2931938,
    "description": "A popular history spot in Ningbo.",
    "city": "Ningbo",
    "name_en": "抗日反顽斗争死难烈士纪念 Monument"
  },
  {
    "name": "抗日解放战争革命遗址纪念碑",
    "category": "history",
    "duration_minutes": 60,
    "rating": 4.0,
    "lat": 29.7922509,
    "lon": 121.2370974,
    "description": "A popular history spot in Ningbo.",
    "city": "Ningbo",
    "name_en": "抗日解放战争革命 Site"
  },
  {
    "name": "招宝山旅游风景区",
    "category": "sightseeing",
    "duration_minutes": 60,
    "rating": 4.0,
    "lat": 29.9626339,
    "lon": 121.7211233,
    "description": "A popular sightseeing spot in Ningbo.",
    "city": "Ningbo",
    "name_en": "招宝 Mountain"
  },
  {
    "name": "插花艺术馆",
    "category": "museum",
    "duration_minutes": 60,
    "rating": 4.0,
    "lat": 29.8136157,
    "lon": 121.5768473,
    "description": "A popular museum spot in Ningbo.",
    "city": "Ningbo",
    "name_en": "插花 Art Museum"
  },
  {
    "name": "方特东方神画",
    "category": "outdoor",
    "duration_minutes": 60,
    "rating": 4.0,
    "lat": 30.3248193,
    "lon": 121.1771606,
    "description": "A popular outdoor spot in Ningbo.",
    "city": "Ningbo",
    "name_en": "方特东方神画"
  },
  {
    "name": "方特家园",
    "category": "outdoor",
    "duration_minutes": 60,
    "rating": 4.0,
    "lat": 30.3291512,
    "lon": 121.1707047,
    "description": "A popular outdoor spot in Ningbo.",
    "city": "Ningbo",
    "name_en": "方特家 Garden"
  },
  {
    "name": "旧客车",
    "category": "sightseeing",
    "duration_minutes": 60,
    "rating": 4.0,
    "lat": 29.9491003,
    "lon": 121.6019645,
    "description": "A popular sightseeing spot in Ningbo.",
    "city": "Ningbo",
    "name_en": "旧客车"
  },
  {
    "name": "明星林",
    "category": "sightseeing",
    "duration_minutes": 60,
    "rating": 4.0,
    "lat": 29.2913606,
    "lon": 121.8302357,
    "description": "A popular sightseeing spot in Ningbo.",
    "city": "Ningbo",
    "name_en": "明星 Forest"
  },
  {
    "name": "明清碑廊",
    "category": "history",
    "duration_minutes": 60,
    "rating": 4.0,
    "lat": 29.9629189,
    "lon": 121.7220387,
    "description": "A popular history spot in Ningbo.",
    "city": "Ningbo",
    "name_en": "明清 Monument"
  },
  {
    "name": "显泽潭",
    "category": "sightseeing",
    "duration_minutes": 60,
    "rating": 4.0,
    "lat": 29.793338,
    "lon": 121.2380898,
    "description": "A popular sightseeing spot in Ningbo.",
    "city": "Ningbo",
    "name_en": "显泽潭"
  },
  {
    "name": "月城",
    "category": "history",
    "duration_minutes": 60,
    "rating": 4.0,
    "lat": 29.9637342,
    "lon": 121.7217886,
    "description": "A popular history spot in Ningbo.",
    "city": "Ningbo",
    "name_en": "月城"
  },
  {
    "name": "服装博物馆",
    "category": "museum",
    "duration_minutes": 60,
    "rating": 4.0,
    "lat": 29.8129318,
    "lon": 121.5761855,
    "description": "A popular museum spot in Ningbo.",
    "city": "Ningbo",
    "name_en": "服装 Museum"
  },
  {
    "name": "望京门城墙遗址博物馆",
    "category": "museum",
    "duration_minutes": 60,
    "rating": 4.0,
    "lat": 29.878586,
    "lon": 121.5349238,
    "description": "A popular museum spot in Ningbo.",
    "city": "Ningbo",
    "name_en": "望京门城墙遗址 Museum"
  },
  {
    "name": "望湖阁",
    "category": "sightseeing",
    "duration_minutes": 60,
    "rating": 4.0,
    "lat": 29.8728893,
    "lon": 121.5394712,
    "description": "A popular sightseeing spot in Ningbo.",
    "city": "Ningbo",
    "name_en": "望湖 Pavilion"
  },
  {
    "name": "李宅",
    "category": "sightseeing",
    "duration_minutes": 60,
    "rating": 4.0,
    "lat": 29.8686543,
    "lon": 121.5382826,
    "description": "A popular sightseeing spot in Ningbo.",
    "city": "Ningbo",
    "name_en": "李宅"
  },
  {
    "name": "李氏宗祠",
    "category": "sightseeing",
    "duration_minutes": 60,
    "rating": 4.0,
    "lat": 29.8671128,
    "lon": 121.5437899,
    "description": "A popular sightseeing spot in Ningbo.",
    "city": "Ningbo",
    "name_en": "李氏宗祠"
  },
  {
    "name": "来远亭",
    "category": "history",
    "duration_minutes": 60,
    "rating": 4.0,
    "lat": 29.8718751,
    "lon": 121.5554896,
    "description": "A popular history spot in Ningbo.",
    "city": "Ningbo",
    "name_en": "来远亭"
  },
  {
    "name": "杨坊故居",
    "category": "sightseeing",
    "duration_minutes": 60,
    "rating": 4.0,
    "lat": 29.8670308,
    "lon": 121.5434633,
    "description": "A popular sightseeing spot in Ningbo.",
    "city": "Ningbo",
    "name_en": "杨坊 Former Residence"
  },
  {
    "name": "杨文元书院遗址",
    "category": "sightseeing",
    "duration_minutes": 60,
    "rating": 4.0,
    "lat": 29.8714558,
    "lon": 121.5379909,
    "description": "A popular sightseeing spot in Ningbo.",
    "city": "Ningbo",
    "name_en": "杨文元书院 Site"
  },
  {
    "name": "林宅",
    "category": "sightseeing",
    "duration_minutes": 60,
    "rating": 4.0,
    "lat": 29.8652714,
    "lon": 121.540785,
    "description": "A popular sightseeing spot in Ningbo.",
    "city": "Ningbo",
    "name_en": "Forest"
  },
  {
    "name": "柿林村",
    "category": "sightseeing",
    "duration_minutes": 60,
    "rating": 4.0,
    "lat": 29.7955734,
    "lon": 121.1559254,
    "description": "A popular sightseeing spot in Ningbo.",
    "city": "Ningbo",
    "name_en": "柿林 Village"
  },
  {
    "name": "桑洲油菜花田",
    "category": "sightseeing",
    "duration_minutes": 60,
    "rating": 4.0,
    "lat": 29.1459172,
    "lon": 121.3138387,
    "description": "A popular sightseeing spot in Ningbo.",
    "city": "Ningbo",
    "name_en": "桑洲油菜花田"
  },
  {
    "name": "桑洲观景台",
    "category": "outdoor",
    "duration_minutes": 60,
    "rating": 4.0,
    "lat": 29.1298303,
    "lon": 121.3145156,
    "description": "A popular outdoor spot in Ningbo.",
    "city": "Ningbo",
    "name_en": "桑洲观景台"
  },
  {
    "name": "梁祝文化公园",
    "category": "sightseeing",
    "duration_minutes": 60,
    "rating": 4.0,
    "lat": 29.9105699,
    "lon": 121.4799995,
    "description": "A popular sightseeing spot in Ningbo.",
    "city": "Ningbo",
    "name_en": "梁祝文化 Park"
  },
  {
    "name": "梅山湾冰雪大世界",
    "category": "outdoor",
    "duration_minutes": 60,
    "rating": 4.0,
    "lat": 29.7568118,
    "lon": 121.9068581,
    "description": "A popular outdoor spot in Ningbo.",
    "city": "Ningbo",
    "name_en": "梅 Mountain"
  },
  {
    "name": "梅山观景台",
    "category": "outdoor",
    "duration_minutes": 60,
    "rating": 4.0,
    "lat": 29.5671052,
    "lon": 121.4096151,
    "description": "A popular outdoor spot in Ningbo.",
    "city": "Ningbo",
    "name_en": "梅 Mountain"
  },
  {
    "name": "武岭学校旧址",
    "category": "sightseeing",
    "duration_minutes": 60,
    "rating": 4.0,
    "lat": 29.6861399,
    "lon": 121.279782,
    "description": "A popular sightseeing spot in Ningbo.",
    "city": "Ningbo",
    "name_en": "武岭 School"
  },
  {
    "name": "民国大杂院",
    "category": "sightseeing",
    "duration_minutes": 60,
    "rating": 4.0,
    "lat": 29.6820781,
    "lon": 121.2780011,
    "description": "A popular sightseeing spot in Ningbo.",
    "city": "Ningbo",
    "name_en": "民国大杂院"
  },
  {
    "name": "水则碑",
    "category": "history",
    "duration_minutes": 60,
    "rating": 4.0,
    "lat": 29.8742779,
    "lon": 121.5415766,
    "description": "A popular history spot in Ningbo.",
    "city": "Ningbo",
    "name_en": "水则 Monument"
  },
  {
    "name": "水壶",
    "category": "history",
    "duration_minutes": 60,
    "rating": 4.0,
    "lat": 29.3813272,
    "lon": 121.517886,
    "description": "A popular history spot in Ningbo.",
    "city": "Ningbo",
    "name_en": "水壶"
  },
  {
    "name": "水帘洞瀑布",
    "category": "outdoor",
    "duration_minutes": 60,
    "rating": 4.0,
    "lat": 29.7541189,
    "lon": 121.0846119,
    "description": "A popular outdoor spot in Ningbo.",
    "city": "Ningbo",
    "name_en": "水帘洞 Waterfall"
  },
  {
    "name": "永丰库遗址公园",
    "category": "sightseeing",
    "duration_minutes": 60,
    "rating": 4.0,
    "lat": 29.8762269,
    "lon": 121.5430679,
    "description": "A popular sightseeing spot in Ningbo.",
    "city": "Ningbo",
    "name_en": "永丰库遗址 Park"
  },
  {
    "name": "沈光文纪念馆（沈氏宗祠）",
    "category": "museum",
    "duration_minutes": 60,
    "rating": 4.0,
    "lat": 29.8062013,
    "lon": 121.480757,
    "description": "A popular museum spot in Ningbo.",
    "city": "Ningbo",
    "name_en": "沈光文 Memorial Hall"
  },
  {
    "name": "沙孟海书学院",
    "category": "museum",
    "duration_minutes": 60,
    "rating": 4.0,
    "lat": 29.7942678,
    "lon": 121.6445008,
    "description": "A popular museum spot in Ningbo.",
    "city": "Ningbo",
    "name_en": "沙孟 Sea"
  },
  {
    "name": "沙氏故居",
    "category": "sightseeing",
    "duration_minutes": 60,
    "rating": 4.0,
    "lat": 29.6609693,
    "lon": 121.6903991,
    "description": "A popular sightseeing spot in Ningbo.",
    "city": "Ningbo",
    "name_en": "沙氏 Former Residence"
  },
  {
    "name": "沙耆故居",
    "category": "history",
    "duration_minutes": 60,
    "rating": 4.0,
    "lat": 29.6634023,
    "lon": 121.6911099,
    "description": "A popular history spot in Ningbo.",
    "city": "Ningbo",
    "name_en": "沙耆 Former Residence"
  },
  {
    "name": "河姆渡遗址",
    "category": "history",
    "duration_minutes": 60,
    "rating": 4.0,
    "lat": 29.9639857,
    "lon": 121.3490166,
    "description": "A popular history spot in Ningbo.",
    "city": "Ningbo",
    "name_en": "河姆渡 Site"
  },
  {
    "name": "河姆渡遗址博物馆",
    "category": "museum",
    "duration_minutes": 60,
    "rating": 4.0,
    "lat": 29.9631801,
    "lon": 121.3454572,
    "description": "A popular museum spot in Ningbo.",
    "city": "Ningbo",
    "name_en": "河姆渡遗址 Museum"
  },
  {
    "name": "浙东古建筑文化园",
    "category": "museum",
    "duration_minutes": 60,
    "rating": 4.0,
    "lat": 29.8962291,
    "lon": 121.8173728,
    "description": "A popular museum spot in Ningbo.",
    "city": "Ningbo",
    "name_en": "浙东古建筑文化 Garden"
  },
  {
    "name": "浙东海事民俗博物馆",
    "category": "museum",
    "duration_minutes": 60,
    "rating": 4.0,
    "lat": 29.8748584,
    "lon": 121.5588231,
    "description": "A popular museum spot in Ningbo.",
    "city": "Ningbo",
    "name_en": "浙东海事民俗 Museum"
  },
  {
    "name": "浙东行政公署旧址",
    "category": "sightseeing",
    "duration_minutes": 60,
    "rating": 4.0,
    "lat": 29.8850303,
    "lon": 121.0769105,
    "description": "A popular sightseeing spot in Ningbo.",
    "city": "Ningbo",
    "name_en": "浙东行政公署旧址"
  },
  {
    "name": "浙东革命根据地纪念馆",
    "category": "museum",
    "duration_minutes": 60,
    "rating": 4.0,
    "lat": 29.8862705,
    "lon": 121.0768398,
    "description": "A popular museum spot in Ningbo.",
    "city": "Ningbo",
    "name_en": "浙东革命根据地 Memorial Hall"
  },
  {
    "name": "浙海关旧址博物馆",
    "category": "museum",
    "duration_minutes": 60,
    "rating": 4.0,
    "lat": 29.8851573,
    "lon": 121.559089,
    "description": "A popular museum spot in Ningbo.",
    "city": "Ningbo",
    "name_en": "浙海关旧址 Museum"
  },
  {
    "name": "海峡文化广场",
    "category": "sightseeing",
    "duration_minutes": 60,
    "rating": 4.0,
    "lat": 29.2109851,
    "lon": 121.9428076,
    "description": "A popular sightseeing spot in Ningbo.",
    "city": "Ningbo",
    "name_en": "海峡文化 Square"
  },
  {
    "name": "海狮表演",
    "category": "sightseeing",
    "duration_minutes": 60,
    "rating": 4.0,
    "lat": 29.804402,
    "lon": 121.6707824,
    "description": "A popular sightseeing spot in Ningbo.",
    "city": "Ningbo",
    "name_en": "Sea"
  },
  {
    "name": "润泽潭",
    "category": "sightseeing",
    "duration_minutes": 60,
    "rating": 4.0,
    "lat": 29.7958635,
    "lon": 121.2403885,
    "description": "A popular sightseeing spot in Ningbo.",
    "city": "Ningbo",
    "name_en": "润泽潭"
  },
  {
    "name": "游乐场",
    "category": "outdoor",
    "duration_minutes": 60,
    "rating": 4.0,
    "lat": 29.2823468,
    "lon": 121.4282515,
    "description": "A popular outdoor spot in Ningbo.",
    "city": "Ningbo",
    "name_en": "游乐场"
  },
  {
    "name": "湖心寺旧址",
    "category": "sightseeing",
    "duration_minutes": 60,
    "rating": 4.0,
    "lat": 29.8682078,
    "lon": 121.5393374,
    "description": "A popular sightseeing spot in Ningbo.",
    "city": "Ningbo",
    "name_en": "湖心 Temple"
  },
  {
    "name": "滕头景区",
    "category": "sightseeing",
    "duration_minutes": 60,
    "rating": 4.0,
    "lat": 29.7044148,
    "lon": 121.3833093,
    "description": "A popular sightseeing spot in Ningbo.",
    "city": "Ningbo",
    "name_en": "滕头景区"
  },
  {
    "name": "潘天寿艺术中心",
    "category": "sightseeing",
    "duration_minutes": 60,
    "rating": 4.0,
    "lat": 29.3342706,
    "lon": 121.433563,
    "description": "A popular sightseeing spot in Ningbo.",
    "city": "Ningbo",
    "name_en": "潘天寿艺术 Center"
  },
  {
    "name": "瀑布",
    "category": "sightseeing",
    "duration_minutes": 60,
    "rating": 4.0,
    "lat": 29.406624,
    "lon": 121.3850163,
    "description": "A popular sightseeing spot in Ningbo.",
    "city": "Ningbo",
    "name_en": "Waterfall"
  },
  {
    "name": "火车来斯主题公园",
    "category": "outdoor",
    "duration_minutes": 60,
    "rating": 4.0,
    "lat": 29.95285,
    "lon": 121.5105888,
    "description": "A popular outdoor spot in Ningbo.",
    "city": "Ningbo",
    "name_en": "火车来斯主题 Park"
  },
  {
    "name": "烟屿楼",
    "category": "sightseeing",
    "duration_minutes": 60,
    "rating": 4.0,
    "lat": 29.8689393,
    "lon": 121.5382116,
    "description": "A popular sightseeing spot in Ningbo.",
    "city": "Ningbo",
    "name_en": "烟屿 Tower"
  },
  {
    "name": "爱心潭",
    "category": "outdoor",
    "duration_minutes": 60,
    "rating": 4.0,
    "lat": 29.3618246,
    "lon": 121.2712754,
    "description": "A popular outdoor spot in Ningbo.",
    "city": "Ningbo",
    "name_en": "爱心潭"
  },
  {
    "name": "玉泰盐铺",
    "category": "sightseeing",
    "duration_minutes": 60,
    "rating": 4.0,
    "lat": 29.6830149,
    "lon": 121.2747744,
    "description": "A popular sightseeing spot in Ningbo.",
    "city": "Ningbo",
    "name_en": "玉泰盐铺"
  },
  {
    "name": "王干山村",
    "category": "sightseeing",
    "duration_minutes": 60,
    "rating": 4.0,
    "lat": 29.2358775,
    "lon": 121.5278097,
    "description": "A popular sightseeing spot in Ningbo.",
    "city": "Ningbo",
    "name_en": "王干 Mountain"
  },
  {
    "name": "王阳明故居",
    "category": "museum",
    "duration_minutes": 60,
    "rating": 4.0,
    "lat": 30.0533168,
    "lon": 121.1480482,
    "description": "A popular museum spot in Ningbo.",
    "city": "Ningbo",
    "name_en": "王阳明 Former Residence"
  },
  {
    "name": "珠山观景台",
    "category": "outdoor",
    "duration_minutes": 60,
    "rating": 4.0,
    "lat": 29.5702877,
    "lon": 121.8977837,
    "description": "A popular outdoor spot in Ningbo.",
    "city": "Ningbo",
    "name_en": "珠 Mountain"
  },
  {
    "name": "甬剧艺术博物馆",
    "category": "museum",
    "duration_minutes": 60,
    "rating": 4.0,
    "lat": 29.873648,
    "lon": 121.6234307,
    "description": "A popular museum spot in Ningbo.",
    "city": "Ningbo",
    "name_en": "甬剧艺术 Museum"
  },
  {
    "name": "甬曹铁路宁波车站纪念馆",
    "category": "museum",
    "duration_minutes": 60,
    "rating": 4.0,
    "lat": 29.8881135,
    "lon": 121.5561126,
    "description": "A popular museum spot in Ningbo.",
    "city": "Ningbo",
    "name_en": "甬曹铁路宁波车站 Memorial Hall"
  },
  {
    "name": "田螺山遗址现场馆",
    "category": "museum",
    "duration_minutes": 60,
    "rating": 4.0,
    "lat": 30.0242307,
    "lon": 121.3798063,
    "description": "A popular museum spot in Ningbo.",
    "city": "Ningbo",
    "name_en": "田螺山 Site"
  },
  {
    "name": "甲第世家",
    "category": "history",
    "duration_minutes": 60,
    "rating": 4.0,
    "lat": 29.9875436,
    "lon": 121.4484374,
    "description": "A popular history spot in Ningbo.",
    "city": "Ningbo",
    "name_en": "甲第世家"
  },
  {
    "name": "白云庄",
    "category": "sightseeing",
    "duration_minutes": 60,
    "rating": 4.0,
    "lat": 29.8771654,
    "lon": 121.5202113,
    "description": "A popular sightseeing spot in Ningbo.",
    "city": "Ningbo",
    "name_en": "白云庄"
  },
  {
    "name": "白云桥",
    "category": "history",
    "duration_minutes": 60,
    "rating": 4.0,
    "lat": 29.8630254,
    "lon": 121.2270793,
    "description": "A popular history spot in Ningbo.",
    "city": "Ningbo",
    "name_en": "白云 Bridge"
  },
  {
    "name": "白鹿狮峰观景台",
    "category": "outdoor",
    "duration_minutes": 60,
    "rating": 4.0,
    "lat": 29.8425132,
    "lon": 121.1711422,
    "description": "A popular outdoor spot in Ningbo.",
    "city": "Ningbo",
    "name_en": "白鹿狮峰观景台"
  },
  {
    "name": "百姓艺术馆",
    "category": "museum",
    "duration_minutes": 60,
    "rating": 4.0,
    "lat": 29.9135402,
    "lon": 121.8364523,
    "description": "A popular museum spot in Ningbo.",
    "city": "Ningbo",
    "name_en": "百姓 Art Museum"
  },
  {
    "name": "皎口水库",
    "category": "sightseeing",
    "duration_minutes": 60,
    "rating": 4.0,
    "lat": 29.8473633,
    "lon": 121.2456278,
    "description": "A popular sightseeing spot in Ningbo.",
    "city": "Ningbo",
    "name_en": "皎口水库"
  },
  {
    "name": "盛氏花厅",
    "category": "sightseeing",
    "duration_minutes": 60,
    "rating": 4.0,
    "lat": 29.8663528,
    "lon": 121.5427089,
    "description": "A popular sightseeing spot in Ningbo.",
    "city": "Ningbo",
    "name_en": "盛氏花厅"
  },
  {
    "name": "石浦渔港古城",
    "category": "sightseeing",
    "duration_minutes": 60,
    "rating": 4.0,
    "lat": 29.2117185,
    "lon": 121.9427,
    "description": "A popular sightseeing spot in Ningbo.",
    "city": "Ningbo",
    "name_en": "石浦渔港 Ancient Town"
  },
  {
    "name": "福字门头",
    "category": "history",
    "duration_minutes": 60,
    "rating": 4.0,
    "lat": 29.9875317,
    "lon": 121.448752,
    "description": "A popular history spot in Ningbo.",
    "city": "Ningbo",
    "name_en": "福字 Gate"
  },
  {
    "name": "福泉山烽火台",
    "category": "history",
    "duration_minutes": 60,
    "rating": 4.0,
    "lat": 29.8187431,
    "lon": 121.9303803,
    "description": "A popular history spot in Ningbo.",
    "city": "Ningbo",
    "name_en": "福泉 Mountain"
  },
  {
    "name": "秀水街历史文化街区",
    "category": "sightseeing",
    "duration_minutes": 60,
    "rating": 4.0,
    "lat": 29.8822813,
    "lon": 121.5446726,
    "description": "A popular sightseeing spot in Ningbo.",
    "city": "Ningbo",
    "name_en": "秀水 Street"
  },
  {
    "name": "红岩长廊",
    "category": "sightseeing",
    "duration_minutes": 60,
    "rating": 4.0,
    "lat": 29.334953,
    "lon": 121.9381785,
    "description": "A popular sightseeing spot in Ningbo.",
    "city": "Ningbo",
    "name_en": "红岩长廊"
  },
  {
    "name": "绿野欢乐谷",
    "category": "outdoor",
    "duration_minutes": 60,
    "rating": 4.0,
    "lat": 30.0260437,
    "lon": 121.4019191,
    "description": "A popular outdoor spot in Ningbo.",
    "city": "Ningbo",
    "name_en": "绿野欢乐谷"
  },
  {
    "name": "罗蒙环球乐园",
    "category": "outdoor",
    "duration_minutes": 60,
    "rating": 4.0,
    "lat": 29.8002205,
    "lon": 121.5398231,
    "description": "A popular outdoor spot in Ningbo.",
    "city": "Ningbo",
    "name_en": "罗蒙环球乐 Garden"
  },
  {
    "name": "老虎山",
    "category": "outdoor",
    "duration_minutes": 60,
    "rating": 4.0,
    "lat": 29.8385314,
    "lon": 121.1292779,
    "description": "A popular outdoor spot in Ningbo.",
    "city": "Ningbo",
    "name_en": "老虎 Mountain"
  },
  {
    "name": "耕泽石刻博物馆",
    "category": "museum",
    "duration_minutes": 60,
    "rating": 4.0,
    "lat": 29.9291044,
    "lon": 121.4147938,
    "description": "A popular museum spot in Ningbo.",
    "city": "Ningbo",
    "name_en": "耕泽石刻 Museum"
  },
  {
    "name": "胜利的号角",
    "category": "history",
    "duration_minutes": 60,
    "rating": 4.0,
    "lat": 29.9085131,
    "lon": 121.3874027,
    "description": "A popular history spot in Ningbo.",
    "city": "Ningbo",
    "name_en": "胜利的号角"
  },
  {
    "name": "舜江楼",
    "category": "sightseeing",
    "duration_minutes": 60,
    "rating": 4.0,
    "lat": 30.0493532,
    "lon": 121.1529736,
    "description": "A popular sightseeing spot in Ningbo.",
    "city": "Ningbo",
    "name_en": "舜江 Tower"
  },
  {
    "name": "花果园庙",
    "category": "sightseeing",
    "duration_minutes": 60,
    "rating": 4.0,
    "lat": 29.8683543,
    "lon": 121.5400334,
    "description": "A popular sightseeing spot in Ningbo.",
    "city": "Ningbo",
    "name_en": "花果园 Temple"
  },
  {
    "name": "芳草居",
    "category": "sightseeing",
    "duration_minutes": 60,
    "rating": 4.0,
    "lat": 29.8738794,
    "lon": 121.5399228,
    "description": "A popular sightseeing spot in Ningbo.",
    "city": "Ningbo",
    "name_en": "芳草居"
  },
  {
    "name": "英国领事馆旧址",
    "category": "museum",
    "duration_minutes": 60,
    "rating": 4.0,
    "lat": 29.8875263,
    "lon": 121.5605971,
    "description": "A popular museum spot in Ningbo.",
    "city": "Ningbo",
    "name_en": "英国领事馆旧址"
  },
  {
    "name": "范宅",
    "category": "sightseeing",
    "duration_minutes": 60,
    "rating": 4.0,
    "lat": 29.8757145,
    "lon": 121.5405824,
    "description": "A popular sightseeing spot in Ningbo.",
    "city": "Ningbo",
    "name_en": "范宅"
  },
  {
    "name": "茶文化博物馆",
    "category": "museum",
    "duration_minutes": 60,
    "rating": 4.0,
    "lat": 29.8686256,
    "lon": 121.5391948,
    "description": "A popular museum spot in Ningbo.",
    "city": "Ningbo",
    "name_en": "茶文化 Museum"
  },
  {
    "name": "蒋宅",
    "category": "sightseeing",
    "duration_minutes": 60,
    "rating": 4.0,
    "lat": 29.8721943,
    "lon": 121.540065,
    "description": "A popular sightseeing spot in Ningbo.",
    "city": "Ningbo",
    "name_en": "蒋宅"
  },
  {
    "name": "蒋宋别墅",
    "category": "history",
    "duration_minutes": 60,
    "rating": 4.0,
    "lat": 29.7251043,
    "lon": 121.2047365,
    "description": "A popular history spot in Ningbo.",
    "city": "Ningbo",
    "name_en": "蒋宋别墅"
  },
  {
    "name": "蒋宋起居室",
    "category": "sightseeing",
    "duration_minutes": 60,
    "rating": 4.0,
    "lat": 29.6843035,
    "lon": 121.2797445,
    "description": "A popular sightseeing spot in Ningbo.",
    "city": "Ningbo",
    "name_en": "蒋宋起居室"
  },
  {
    "name": "蒋母旧居",
    "category": "sightseeing",
    "duration_minutes": 60,
    "rating": 4.0,
    "lat": 29.6844177,
    "lon": 121.2775639,
    "description": "A popular sightseeing spot in Ningbo.",
    "city": "Ningbo",
    "name_en": "蒋母 Former Residence"
  },
  {
    "name": "蒋氏宗祠",
    "category": "sightseeing",
    "duration_minutes": 60,
    "rating": 4.0,
    "lat": 29.6847952,
    "lon": 121.2787816,
    "description": "A popular sightseeing spot in Ningbo.",
    "city": "Ningbo",
    "name_en": "蒋氏宗祠"
  },
  {
    "name": "蒋氏故居",
    "category": "sightseeing",
    "duration_minutes": 60,
    "rating": 4.0,
    "lat": 29.6834366,
    "lon": 121.2801234,
    "description": "A popular sightseeing spot in Ningbo.",
    "city": "Ningbo",
    "name_en": "蒋氏 Former Residence"
  },
  {
    "name": "蒸汽机车",
    "category": "sightseeing",
    "duration_minutes": 60,
    "rating": 4.0,
    "lat": 29.8880349,
    "lon": 121.5558644,
    "description": "A popular sightseeing spot in Ningbo.",
    "city": "Ningbo",
    "name_en": "蒸汽机车"
  },
  {
    "name": "虹岭古道修缮碑记",
    "category": "history",
    "duration_minutes": 60,
    "rating": 4.0,
    "lat": 29.9372683,
    "lon": 121.2801677,
    "description": "A popular history spot in Ningbo.",
    "city": "Ningbo",
    "name_en": "虹岭古道修缮 Monument"
  },
  {
    "name": "蝙蝠洞",
    "category": "sightseeing",
    "duration_minutes": 60,
    "rating": 4.0,
    "lat": 29.7332098,
    "lon": 121.3425136,
    "description": "A popular sightseeing spot in Ningbo.",
    "city": "Ningbo",
    "name_en": "蝙蝠 Cave"
  },
  {
    "name": "裘岙狮子山景区",
    "category": "sightseeing",
    "duration_minutes": 60,
    "rating": 4.0,
    "lat": 29.8940549,
    "lon": 121.2154224,
    "description": "A popular sightseeing spot in Ningbo.",
    "city": "Ningbo",
    "name_en": "裘岙狮子 Mountain"
  },
  {
    "name": "西门城楼",
    "category": "sightseeing",
    "duration_minutes": 60,
    "rating": 4.0,
    "lat": 29.2859151,
    "lon": 121.4108632,
    "description": "A popular sightseeing spot in Ningbo.",
    "city": "Ningbo",
    "name_en": "西门城 Tower"
  },
  {
    "name": "观景台",
    "category": "outdoor",
    "duration_minutes": 60,
    "rating": 4.0,
    "lat": 29.5654196,
    "lon": 121.3397168,
    "description": "A popular outdoor spot in Ningbo.",
    "city": "Ningbo",
    "name_en": "观景台"
  },
  {
    "name": "许家山石头村",
    "category": "sightseeing",
    "duration_minutes": 60,
    "rating": 4.0,
    "lat": 29.3239078,
    "lon": 121.5349875,
    "description": "A popular sightseeing spot in Ningbo.",
    "city": "Ningbo",
    "name_en": "许家 Mountain"
  },
  {
    "name": "象山县博物馆",
    "category": "museum",
    "duration_minutes": 60,
    "rating": 4.0,
    "lat": 29.4660644,
    "lon": 121.8864827,
    "description": "A popular museum spot in Ningbo.",
    "city": "Ningbo",
    "name_en": "象山 Museum"
  },
  {
    "name": "象山影视城",
    "category": "outdoor",
    "duration_minutes": 60,
    "rating": 4.0,
    "lat": 29.2927239,
    "lon": 121.8350476,
    "description": "A popular outdoor spot in Ningbo.",
    "city": "Ningbo",
    "name_en": "象 Mountain"
  },
  {
    "name": "象山灵芝艺术馆",
    "category": "museum",
    "duration_minutes": 60,
    "rating": 4.0,
    "lat": 29.2386269,
    "lon": 121.8406159,
    "description": "A popular museum spot in Ningbo.",
    "city": "Ningbo",
    "name_en": "象山灵芝 Art Museum"
  },
  {
    "name": "財神山風景區",
    "category": "sightseeing",
    "duration_minutes": 60,
    "rating": 4.0,
    "lat": 29.4608934,
    "lon": 121.4057659,
    "description": "A popular sightseeing spot in Ningbo.",
    "city": "Ningbo",
    "name_en": "財神 Mountain"
  },
  {
    "name": "贺秘监祠",
    "category": "sightseeing",
    "duration_minutes": 60,
    "rating": 4.0,
    "lat": 29.8703267,
    "lon": 121.5389612,
    "description": "A popular sightseeing spot in Ningbo.",
    "city": "Ningbo",
    "name_en": "贺秘监祠"
  },
  {
    "name": "超然阁",
    "category": "sightseeing",
    "duration_minutes": 60,
    "rating": 4.0,
    "lat": 29.8717901,
    "lon": 121.5380555,
    "description": "A popular sightseeing spot in Ningbo.",
    "city": "Ningbo",
    "name_en": "超然 Pavilion"
  },
  {
    "name": "邬家庄园水上乐园",
    "category": "outdoor",
    "duration_minutes": 60,
    "rating": 4.0,
    "lat": 29.4412854,
    "lon": 121.4261633,
    "description": "A popular outdoor spot in Ningbo.",
    "city": "Ningbo",
    "name_en": "邬家庄 Garden"
  },
  {
    "name": "郑氏十七房",
    "category": "history",
    "duration_minutes": 60,
    "rating": 4.0,
    "lat": 30.0237592,
    "lon": 121.6011821,
    "description": "A popular history spot in Ningbo.",
    "city": "Ningbo",
    "name_en": "郑氏十七房"
  },
  {
    "name": "鄞县共产主义劳动大学遗址",
    "category": "history",
    "duration_minutes": 60,
    "rating": 4.0,
    "lat": 29.8217084,
    "lon": 121.250782,
    "description": "A popular history spot in Ningbo.",
    "city": "Ningbo",
    "name_en": "鄞 共产主义劳动大学 Site"
  },
  {
    "name": "鄞州区文化馆",
    "category": "museum",
    "duration_minutes": 60,
    "rating": 4.0,
    "lat": 29.8173804,
    "lon": 121.5443707,
    "description": "A popular museum spot in Ningbo.",
    "city": "Ningbo",
    "name_en": "鄞州 Cultural Center"
  },
  {
    "name": "鄞州滨海博物馆",
    "category": "museum",
    "duration_minutes": 60,
    "rating": 4.0,
    "lat": 29.7183009,
    "lon": 121.8611195,
    "description": "A popular museum spot in Ningbo.",
    "city": "Ningbo",
    "name_en": "鄞州滨海 Museum"
  },
  {
    "name": "酒埕岩生态农业观光园",
    "category": "sightseeing",
    "duration_minutes": 60,
    "rating": 4.0,
    "lat": 29.6929899,
    "lon": 121.5956456,
    "description": "A popular sightseeing spot in Ningbo.",
    "city": "Ningbo",
    "name_en": "酒埕岩生态农业观光 Garden"
  },
  {
    "name": "金鸡山瞭台",
    "category": "history",
    "duration_minutes": 60,
    "rating": 4.0,
    "lat": 29.9568879,
    "lon": 121.7306515,
    "description": "A popular history spot in Ningbo.",
    "city": "Ningbo",
    "name_en": "金鸡 Mountain"
  },
  {
    "name": "银台第博物馆",
    "category": "museum",
    "duration_minutes": 60,
    "rating": 4.0,
    "lat": 29.8745956,
    "lon": 121.5401558,
    "description": "A popular museum spot in Ningbo.",
    "city": "Ningbo",
    "name_en": "银台第 Museum"
  },
  {
    "name": "锁翠亭",
    "category": "sightseeing",
    "duration_minutes": 60,
    "rating": 4.0,
    "lat": 29.7940316,
    "lon": 121.2384009,
    "description": "A popular sightseeing spot in Ningbo.",
    "city": "Ningbo",
    "name_en": "锁翠亭"
  },
  {
    "name": "镇海口海防历史纪念馆",
    "category": "museum",
    "duration_minutes": 60,
    "rating": 4.0,
    "lat": 29.9600311,
    "lon": 121.7207536,
    "description": "A popular museum spot in Ningbo.",
    "city": "Ningbo",
    "name_en": "镇海口海防历史 Memorial Hall"
  },
  {
    "name": "镇海鼓楼",
    "category": "sightseeing",
    "duration_minutes": 60,
    "rating": 4.0,
    "lat": 29.9561901,
    "lon": 121.7140206,
    "description": "A popular sightseeing spot in Ningbo.",
    "city": "Ningbo",
    "name_en": "镇海鼓 Tower"
  },
  {
    "name": "镇远炮台",
    "category": "history",
    "duration_minutes": 60,
    "rating": 4.0,
    "lat": 29.9681867,
    "lon": 121.746834,
    "description": "A popular history spot in Ningbo.",
    "city": "Ningbo",
    "name_en": "Town"
  },
  {
    "name": "阿拉的海",
    "category": "outdoor",
    "duration_minutes": 60,
    "rating": 4.0,
    "lat": 29.4039081,
    "lon": 121.9390653,
    "description": "A popular outdoor spot in Ningbo.",
    "city": "Ningbo",
    "name_en": "阿拉的 Sea"
  },
  {
    "name": "阿育王寺",
    "category": "history",
    "duration_minutes": 60,
    "rating": 4.0,
    "lat": 29.8485299,
    "lon": 121.7383887,
    "description": "A popular history spot in Ningbo.",
    "city": "Ningbo",
    "name_en": "阿育王 Temple"
  },
  {
    "name": "陆埠步道观景平台",
    "category": "outdoor",
    "duration_minutes": 60,
    "rating": 4.0,
    "lat": 29.9321343,
    "lon": 121.2379436,
    "description": "A popular outdoor spot in Ningbo.",
    "city": "Ningbo",
    "name_en": "陆埠步道观景平台"
  },
  {
    "name": "陈鱼门故居",
    "category": "sightseeing",
    "duration_minutes": 60,
    "rating": 4.0,
    "lat": 29.8668446,
    "lon": 121.5435984,
    "description": "A popular sightseeing spot in Ningbo.",
    "city": "Ningbo",
    "name_en": "陈鱼门 Former Residence"
  },
  {
    "name": "青林渡口遗址",
    "category": "sightseeing",
    "duration_minutes": 60,
    "rating": 4.0,
    "lat": 29.9112756,
    "lon": 121.5281626,
    "description": "A popular sightseeing spot in Ningbo.",
    "city": "Ningbo",
    "name_en": "青林渡口 Site"
  },
  {
    "name": "靖远炮台",
    "category": "history",
    "duration_minutes": 60,
    "rating": 4.0,
    "lat": 29.9595588,
    "lon": 121.7338911,
    "description": "A popular history spot in Ningbo.",
    "city": "Ningbo",
    "name_en": "靖远炮台"
  },
  {
    "name": "非物质文化遗产馆",
    "category": "museum",
    "duration_minutes": 60,
    "rating": 4.0,
    "lat": 29.8695184,
    "lon": 121.5456426,
    "description": "A popular museum spot in Ningbo.",
    "city": "Ningbo",
    "name_en": "非物质文化遗产馆"
  },
  {
    "name": "韩岭村",
    "category": "sightseeing",
    "duration_minutes": 60,
    "rating": 4.0,
    "lat": 29.7393341,
    "lon": 121.6622609,
    "description": "A popular sightseeing spot in Ningbo.",
    "city": "Ningbo",
    "name_en": "韩岭 Village"
  },
  {
    "name": "韩岭美术馆",
    "category": "sightseeing",
    "duration_minutes": 60,
    "rating": 4.0,
    "lat": 29.7413102,
    "lon": 121.6617349,
    "description": "A popular sightseeing spot in Ningbo.",
    "city": "Ningbo",
    "name_en": "韩岭 Art Gallery"
  },
  {
    "name": "韩岭老街",
    "category": "sightseeing",
    "duration_minutes": 60,
    "rating": 4.0,
    "lat": 29.739176,
    "lon": 121.6623714,
    "description": "A popular sightseeing spot in Ningbo.",
    "city": "Ningbo",
    "name_en": "韩岭 Old Street"
  },
  {
    "name": "骆家坑旅游区",
    "category": "sightseeing",
    "duration_minutes": 60,
    "rating": 4.0,
    "lat": 29.431188,
    "lon": 121.5096597,
    "description": "A popular sightseeing spot in Ningbo.",
    "city": "Ningbo",
    "name_en": "骆家坑旅游区"
  },
  {
    "name": "高丽使馆遗址",
    "category": "sightseeing",
    "duration_minutes": 60,
    "rating": 4.0,
    "lat": 29.8736096,
    "lon": 121.5414664,
    "description": "A popular sightseeing spot in Ningbo.",
    "city": "Ningbo",
    "name_en": "高丽使馆 Site"
  },
  {
    "name": "麻将起源地陈列馆",
    "category": "sightseeing",
    "duration_minutes": 60,
    "rating": 4.0,
    "lat": 29.872978,
    "lon": 121.5359711,
    "description": "A popular sightseeing spot in Ningbo.",
    "city": "Ningbo",
    "name_en": "麻将起源地陈列馆"
  },
  {
    "name": "黄家前山",
    "category": "outdoor",
    "duration_minutes": 60,
    "rating": 4.0,
    "lat": 29.8402088,
    "lon": 121.1276445,
    "description": "A popular outdoor spot in Ningbo.",
    "city": "Ningbo",
    "name_en": "黄家前 Mountain"
  },
  {
    "name": "黑龙潭一潭",
    "category": "outdoor",
    "duration_minutes": 60,
    "rating": 4.0,
    "lat": 29.7721208,
    "lon": 121.0833218,
    "description": "A popular outdoor spot in Ningbo.",
    "city": "Ningbo",
    "name_en": "黑龙潭一潭"
  },
  {
    "name": "黑龙潭三潭",
    "category": "outdoor",
    "duration_minutes": 60,
    "rating": 4.0,
    "lat": 29.7709112,
    "lon": 121.0808889,
    "description": "A popular outdoor spot in Ningbo.",
    "city": "Ningbo",
    "name_en": "黑龙潭三潭"
  },
  {
    "name": "黑龙潭二潭",
    "category": "outdoor",
    "duration_minutes": 60,
    "rating": 4.0,
    "lat": 29.7717603,
    "lon": 121.0817511,
    "description": "A popular outdoor spot in Ningbo.",
    "city": "Ningbo",
    "name_en": "黑龙潭二潭"
  },
  {
    "name": "黑龙潭景区入口",
    "category": "sightseeing",
    "duration_minutes": 60,
    "rating": 4.0,
    "lat": 29.7814958,
    "lon": 121.0902126,
    "description": "A popular sightseeing spot in Ningbo.",
    "city": "Ningbo",
    "name_en": "黑龙潭景区入口"
  }
]